443P/PANSTARRS-Christensen,e,19.8880,108.9332,145.0482,4.124411,0.1176688,0.28283986,130.8375,10/25.0/2025,2000,g 13.5,4.0
# From MPEC 2023-VM5
444P/WISE-PANSTARRS,e,22.7013,88.1945,172.8171,3.477590,0.1519800,0.55553081,184.7630,10/25.0/2025,2000,g 17.0,4.0
# From MPC188421
445P/Lemmon-PANSTARRS,e,1.0891,126.5941,213.1243,4.044785,0.1211605,0.41438199,141.2776,10/25.0/2025,2000,g 15.0,4.0
# From MPEC 2024-NE4
446P/McNaught,e,16.6390,336.3135,344.6079,4.558214,0.1012773,0.64687813,126.1556,10/25.0/2025,2000,g 16.5,4.0
# From MPEC 2022-YB4
447P/Sheppard-Tholen,e,7.4416,302.6381,97.4227,5.624014,0.0738983,0.17705015,86.2223,10/25.0/2025,2000,g 12.0,4.0
# From MPEC 2024-PC5
448P/PANSTARRS,e,12.1435,161.7506,218.8067,3.636807,0.1421097,0.41798806,162.7249,10/25.0/2025,2000,g 16.0,4.0
# From MPEC 2024-DC6
449P/Leonard,e,15.4689,242.5196,176.7773,3.599635,0.1443167,0.47972496,258.9473,10/25.0/2025,2000,g 16.0,4.0
# From MPC188421
450P/LONEOS,e,10.8098,124.0081,25.1693,7.893987,0.0444385,0.31344281,338.7048,10/25.0/2025,2000,g  6.5,4.0
# From MPEC 2023-HD1
451P/Christensen,e,26.4869,300.8634,186.8128,6.351547,0.0615722,0.55929108,65.3838,10/25.0/2025,2000,g 13.5,4.0
# From MPEC 2024-NE4
452P/Sheppard-Jewitt,e,6.4223,123.6615,37.1152,7.312998,0.0498380,0.42871191,45.4934,10/25.0/2025,2000,g  9.0,4.0
# From MPEC 2023-RF3
453P/WISE-Lemmon,e,27.0558,42.8880,70.9161,5.468400,0.0770750,0.58317770,74.4966,10/25.0/2025,2000,g 14.0,4.0
# From MPEC 2023-CD7
454P/PANSTARRS,e,19.8074,54.5866,20.2177,4.212067,0.1140148,0.36132806,135.2561,10/25.0/2025,2000,g 14.0,4.0
# From MPEC 2022-Y14
455P/PANSTARRS,e,14.1340,146.1765,237.5400,3.153706,0.1759836,0.30429999,171.2732,10/25.0/2025,2000,g 17.0,4.0
# From MPC182892
456P/PANSTARRS,e,16.9649,243.1387,232.9800,3.168805,0.1747273,0.11568153,33.7612,10/25.0/2025,2000,g 13.5,4.0
# From MPEC 2025-A40
457P/Lemmon-PANSTARRS,e,5.2258,175.9639,104.2945,2.645013,0.2291196,0.11832549,98.7581,10/25.0/2025,2000,g 15.5,4.0
# From MPEC 2023-HD1
458P/Jahn,e,13.6217,1.5513,104.9628,3.859497,0.1299894,0.31726011,141.6969,10/25.0/2025,2000,g 14.0,4.0
# From MPEC 2024-N80
459P/Catalina,e,7.1733,256.9866,205.2340,3.240473,0.1689629,0.57787669,164.9421,10/25.0/2025,2000,g 15.5,4.0
# From MPEC 2023-G14
460P/PANSTARRS,e,18.9005,180.5176,351.9315,3.027469,0.1871046,0.66427836,297.9548,10/25.0/2025,2000,g 21.0,4.0
# From MPEC 2024-GJ3
461P/WISE,e,18.3963,194.3738,174.8278,3.144614,0.1767474,0.56946490,261.8869,10/25.0/2025,2000,g 18.5,4.0
# From MPEC 2024-BE0
462P/LONEOS-PANSTARRS,e,7.0545,322.6355,4.1664,4.858550,0.0920331,0.57869884,108.7103,10/25.0/2025,2000,g 17.0,4.0
# From MPEC 2024-GJ3
463P/NEOWISE,e,29.2962,283.2182,216.3421,2.974016,0.1921716,0.82597005,180.6469,10/25.0/2025,2000,g 18.0,4.0
# From MPEC 2024-Q20
464P/PANSTARRS,e,21.6740,309.5790,267.4941,4.683241,0.0972488,0.28068298,94.4019,10/25.0/2025,2000,g 10.5,4.0
# From MPEC 2024-NE4
465P/Hill,e,25.8618,217.9382,140.9694,6.004958,0.0669791,0.61301808,60.2996,10/25.0/2025,2000,g 12.5,4.0
# From MPEC 2024-JU4
466P/PANSTARRS,e,14.4156,116.2169,198.1080,3.984352,0.1239274,0.49004171,110.7453,10/25.0/2025,2000,g 14.0,4.0
# From MPEC 2025-A40
467P/LINEAR-Grauer,e,2.4794,43.2621,267.2838,5.824773,0.0701109,0.05430132,74.7426,10/25.0/2025,2000,g  9.0,4.0
# From MPEC 2024-O39
468P/SidingSpring,e,50.4545,356.1290,322.5627,7.115228,0.0519303,0.44479346,36.5613,10/25.0/2025,2000,g 11.5,4.0
# From MPEC 2025-A40
469P/PANSTARRS,e,20.1712,178.9661,43.4911,4.343323,0.1088857,0.30813169,355.1674,10/25.0/2025,2000,g 13.5,4.0
# From MPC182892
470P/PANSTARRS,e,8.8439,246.1628,151.6590,4.462345,0.1045585,0.38927138,70.9375,10/25.0/2025,2000,g 15.5,4.0
# From MPC182892
471P/LINEAR-Lemmon,e,4.7970,283.3126,94.7454,5.689609,0.0726240,0.62760019,49.0428,10/25.0/2025,2000,g 12.0,4.0
# From MPC188421
472P/NEAT-LINEAR,e,10.8258,205.8163,218.8123,7.767531,0.0455281,0.56400619,21.3169,10/25.0/2025,2000,g 10.5,4.0
# From MPEC 2024-MB8
473P/NEAT,e,56.8882,22.1912,42.9446,7.973653,0.0437742,0.82358336,26.5611,10/25.0/2025,2000,g 13.5,4.0
# From MPEC 2024-B74
474P/Hogan,e,1.0969,26.7514,11.2701,3.130800,0.1779185,0.18794016,148.1033,10/25.0/2025,2000,g 15.5,4.0
# From MPC185666
475P/Spacewatch-LINEAR,e,14.5239,147.3543,40.4198,7.319847,0.0497681,0.44297502,25.3951,10/25.0/2025,2000,g 11.0,4.0
# From MPC184421
476P/PANSTARRS,e,19.0053,57.0487,46.7417,4.774615,0.0944706,0.34578833,35.2857,10/25.0/2025,2000,g 12.5,4.0
# From MPEC 2024-GJ3
477P/PANSTARRS,e,8.9139,59.1409,305.8619,3.001645,0.1895243,0.41756271,126.7033,10/25.0/2025,2000,g 14.5,4.0
# From MPEC 2024-L77
478P/ATLAS,e,12.5251,127.2596,13.2630,3.648402,0.1414327,0.34380502,76.4807,10/25.0/2025,2000,g 13.5,4.0
# From MPEC 2024-PC5
479P/Elenin,e,15.3997,295.8324,263.4967,5.622615,0.0739259,0.77896157,39.7504,10/25.0/2025,2000,g 15.0,4.0
# From MPC182893
480P/PANSTARRS,e,13.7159,229.9837,214.4572,4.611647,0.0995222,0.24625946,91.0700,10/25.0/2025,2000,g 12.0,4.0
# From MPEC 2025-A40
481P/Lemmon-PANSTARRS,e,6.0827,93.5498,356.8354,4.682576,0.0972695,0.34342748,81.5705,10/25.0/2025,2000,g 13.5,4.0
# From MPEC 2024-JU4
482P/PANSTARRS,e,24.4887,126.0727,339.7419,3.757219,0.1353332,0.49235917,118.5200,10/25.0/2025,2000,g 13.5,4.0
# From MPC186638
483P-A/PANSTARRS,e,14.1747,199.0561,49.4781,3.195353,0.1725543,0.22178152,230.9304,10/25.0/2025,2000,g 13.5,4.0
# From MPC185666
483P-B/PANSTARRS,e,14.1755,199.0553,49.4689,3.195272,0.1725608,0.22172401,230.9662,10/25.0/2025,2000,g 17.0,4.0
# From MPEC 2024-DD5
484P/Spacewatch,e,14.4742,265.3728,240.8209,3.756402,0.1353773,0.43308652,242.5553,10/25.0/2025,2000,g 16.0,4.0
# From MPEC 2024-JU4
485P/Sheppard-Tholen,e,10.0161,261.6448,196.1308,6.852460,0.0549458,0.41718808,43.4962,10/25.0/2025,2000,g 13.0,4.0
# From MPC188421
486P/Leonard,e,2.2097,219.0238,93.9385,3.627125,0.1426791,0.36342095,29.1319,10/25.0/2025,2000,g 14.5,4.0
# From MPC188421
487P/SidingSpring,e,39.3662,49.2007,0.8398,5.160889,0.0840654,0.64836410,31.0569,10/25.0/2025,2000,g 13.5,4.0
# From MPEC 2024-UA9
488P/NEAT-PANSTARRS,e,11.4135,323.7020,2.1302,3.749500,0.1357513,0.55156439,70.9901,10/25.0/2025,2000,g 16.5,4.0
# From MPEC 2024-Q14
489P/Denning,e,4.0259,20.6015,109.4182,4.425856,0.1058542,0.64722226,355.7332,10/25.0/2025,2000,g 15.5,4.0
# From MPEC 2024-YC7
490P/ATLAS,e,12.2671,307.5902,332.5754,3.030520,0.1868222,0.64701331,73.2102,10/25.0/2025,2000,g 21.0,4.0
# From MPC188421
491P/Spacewatch-PANSTARRS,e,9.3669,311.6834,298.8513,5.012818,0.0878175,0.25868270,36.3722,10/25.0/2025,2000,g  9.5,4.0
# From MPC185666
492P/LINEAR,e,11.4011,11.3048,40.9815,5.758559,0.0713236,0.69053559,32.9222,10/25.0/2025,2000,g 15.0,4.0
# From MPC188421
493P/LONEOS,e,24.1089,1.0926,83.2179,7.173660,0.0512971,0.46708165,355.8402,10/25.0/2025,2000,g 12.0,2.0
# From MPEC 2024-RQ6
494P/PANSTARRS,e,7.7899,245.0434,48.8842,3.794364,0.1333508,0.35671982,68.2816,10/25.0/2025,2000,g 16.0,4.0
# From MPC188421
495P/Christensen,e,26.3562,291.6138,141.3342,4.760207,0.0948998,0.27317781,0.2544,10/25.0/2025,2000,g 11.5,4.0
# From MPC188421
496P/Hill,e,14.8144,63.5863,42.2496,6.099100,0.0654343,0.73420250,14.9663,10/25.0/2025,2000,g 14.0,4.0
# From MPC184421
497P/Spacewatch-PANSTARRS,e,10.4369,40.3621,32.3905,5.611586,0.0741439,0.63026252,18.6654,10/25.0/2025,2000,g 17.5,4.0
# From MPC184421
498P/LINEAR,e,14.4827,279.2299,179.0880,4.592898,0.1001322,0.57227679,31.0494,10/25.0/2025,2000,g 14.7,4.0
# From MPC188422
499P/Catalina,e,24.5830,139.3053,2.5646,3.017987,0.1879871,0.69148979,44.1018,10/25.0/2025,2000,g 18.5,4.0
# From MPC185667
500P/PANSTARRS,e,2.3015,111.5266,46.7016,3.416155,0.1560982,0.37593607,32.3157,10/25.0/2025,2000,g 16.0,4.0
# From MPC182882
501P/Rankin,e,10.0474,139.7830,53.6865,2.227905,0.2963869,0.69853231,165.5852,10/25.0/2025,2000,g 21.5,4.0
# From MPC188422
502P/NEAT,e,11.3994,264.4839,37.7302,7.995777,0.0435926,0.47103609,3.5311,10/25.0/2025,2000,g  8.5,4.0
# From MPC185667
503P/PANSTARRS,e,10.5748,268.5819,17.9447,3.658051,0.1408736,0.48131717,358.3726,10/25.0/2025,2000,g 15.0,4.0
# From MPC186639
504P/,e,8.8065,221.1200,308.5329,3.744803,0.1360068,0.40608040,27.0576,10/25.0/2025,2000,g 14.3,4.0
# From MPC184407
505P/Palomar,e,11.3883,111.9419,143.9549,4.112891,0.1181635,0.31067892,349.9955,10/25.0/2025,2000,g 14.9,4.0
# From MPC186639
506P/,e,13.6541,325.6284,354.5656,5.584924,0.0746755,0.48248221,59.0210,10/25.0/2025,2000,g 12.7,4.0
# From MPC184407
507P/Lemmon,e,17.0924,233.1458,107.7655,6.213765,0.0636315,0.56860790,67.3919,10/25.0/2025,2000,g 12.6,4.0
# From MPC188422
508P/McNaught,e,31.7334,268.8301,338.8777,3.574925,0.1458155,0.56942052,15.4201,10/25.0/2025,2000,g 16.5,4.0
# From MPC188422
509P/Catalina,e,8.6042,275.2076,180.1093,7.035690,0.0528134,0.47512630,352.2956,10/25.0/2025,2000,g 10.0,4.0
# From MPC188422
510P/Boattini,e,8.2277,280.6693,86.6854,6.483681,0.0596996,0.24808991,340.9427,10/25.0/2025,2000,g  9.5,4.0
# From MPC188422
511P/PANSTARRS,e,14.7853,271.0276,81.2230,3.010143,0.1887223,0.23725123,19.9994,10/25.0/2025,2000,g 17.1,4.0
# From MPC188422
512P/PANSTARRS,e,12.5687,73.7463,308.7235,5.698665,0.0724510,0.15747883,330.5805,10/25.0/2025,2000,g 10.0,4.0
# From MPC188422
513P/Broughton,e,21.3855,56.9972,304.8647,7.255593,0.0504307,0.55156939,6.7192,10/25.0/2025,2000,g 11.0,4.0
# From MPC107687
1I/`Oumuamua,h,09/09.4886/2017,122.6778,24.5997,241.6845,1.199252,0.255240,2000,23.0,2.0
# From MPEC 2025-R69
2I/Borisov,h,12/09.0572/2019,44.2624,307.8024,209.2911,3.345952,1.997724,2000,11.0,4.0
# From MPEC 2025-T80
3I/ATLAS,h,10/29.4839/2025,175.1131,322.1574,128.0125,6.138574,1.356324,2000,11.8,4.0
